#aV2023 12 26  0  0  0.00000000     288 DD+AD WGS84 FIT  NGA
## 2294 172800.00000000   300.00000000 60304 0.0000000000000
+   32     1  2  3  4  5  6  7  8  9 10 11 12 13 14 15 16 17
+         18 19 20 21 22 23 24 25 26 27 28 29 30 31 32  0  0
+          0  0  0  0  0  0  0  0  0  0  0  0  0  0  0  0  0
+          0  0  0  0  0  0  0  0  0  0  0  0  0  0  0  0  0
+          0  0  0  0  0  0  0  0  0  0  0  0  0  0  0  0  0
++         2  2  2  2  2  2  2  2  2  2  2  2  2  2  2  2  2
++         2  2  2  2  2  2  2  2  2  2  2  2  2  2  2  0  0
++         0  0  0  0  0  0  0  0  0  0  0  0  0  0  0  0  0
++         0  0  0  0  0  0  0  0  0  0  0  0  0  0  0  0  0
++         0  0  0  0  0  0  0  0  0  0  0  0  0  0  0  0  0
%c cc cc ccc ccc cccc cccc cccc cccc ccccc ccccc ccccc ccccc
%c cc cc ccc ccc cccc cccc cccc cccc ccccc ccccc ccccc ccccc
%f  0.0000000  0.000000000  0.00000000000  0.000000000000000
%f  0.0000000  0.000000000  0.00000000000  0.000000000000000
%i    0    0    0    0      0      0      0      0         0
%i    0    0    0    0      0      0      0      0         0
/*      NGA, ST. LOUIS,MO.                                  
/*   EPHEMERIS COMPUTED FROM 2 DAYS OF DATA                 
/*   EPOCHA v8 SMOOTHER                                     
/*   G2139 IERS2010 SATIGS SATAPC                           
*  2023 12 26 22 55  0.00000000
P  1  13390.316153 -20428.436544   9659.583082    164.657087                    
V  1  -2086.400248  12834.544325  29321.525138      0.007437                    
P  2  14875.353376 -15014.510132  16452.690756   -509.894650                    
V  2  -2565.883658  19940.339060  21391.603241      0.054372                    
P  3  21554.879120 -11801.270193 -10075.648590     83.136360                    
V  3  12708.398049   -897.513943  28755.390007      0.267493                    
P  4  10766.648509 -10671.668442 -21794.784800    250.011143                    
V  4  18287.854251  20796.221019  -1277.762534      0.099598                    
P  5 -25915.109037   5710.659432  -2175.811806   -155.627886                    
V  5   1784.749779  -3040.733149 -31726.153297     -0.014222                    
P  6  -8754.817671 -15284.492277 -19772.073909    465.447766                    
V  6   8564.097070 -23746.632056  14606.450972     -0.122540                    
P  7   4320.982781 -25591.744339   4746.689492    -21.929983                    
V  7   4917.832128  -4266.057584 -31041.851792     -0.095375                    
P  8  17128.620463  -2907.867333  20116.182405   -158.993224                    
V  8  17396.870560  18851.166324 -11625.668667     -0.019260                    
P  9   -701.813067 -19223.346935 -18376.758813     39.203841                    
V  9  17331.622391  15484.888703 -16997.281168      0.119107                    
P 10  10661.963583  12158.678177  21333.467143    -66.885734                    
V 10 -25722.909747   6358.872104   8999.688734     -0.014838                    
P 11 -14526.527150  -4178.698529 -21812.466206   -516.430491                    
V 11   9291.438092 -26141.404843  -1226.984033     -0.147198                    
P 12 -22325.500512  10545.065897  -9975.292700   -461.560543                    
V 12 -12505.630684   -467.757008  28367.249671     -0.039112                    
P 13 -19308.361796  -8321.839119  16155.925715    609.710685                    
V 13 -10587.341553 -17959.025758 -21421.061584      0.038455                    
P 14  -6435.587853 -14410.203166  21400.697414    281.830300                    
V 14  26552.791440  -5695.229814   3975.754428      0.104092                    
P 15 -16950.671463   4854.561097  19433.428479    110.950915                    
V 15 -19274.552208 -17178.748901 -12006.325936      0.038343                    
P 16  25723.523777   1762.080990  -7633.594644   -396.486722                    
V 16  -8752.154825   3381.055561 -29549.100274      0.074015                    
P 17 -11255.502571 -22632.960440   8342.862862    721.252561                    
V 17   8170.727259   6264.212501  29691.648637     -0.007481                    
P 18  -4200.103283  25485.481002   5771.654046   -516.618070                    
V 18  -4616.689002   6209.747350 -31036.499592     -0.097357                    
P 19 -16861.825387 -20730.810410  -1495.653476    417.986296                    
V 19    767.063229  -2639.588597  31663.654457      0.052441                    
P 20 -22192.483834  -1694.373691 -14304.900052    394.643837                    
V 20  15951.997482  -9403.270835 -23713.753964     -0.019119                    
P 21  15667.074701 -10303.548997  18919.060408    140.349235                    
V 21  -3049.151750  23205.470392  16518.916862     -0.011468                    
P 22 -13594.832264 -12012.057910  19737.204938     59.008240                    
V 22  23819.064133  -4535.707518  14242.392483     -0.066820                    
P 23  -3508.052945  15656.614974  21148.200975    123.470730                    
V 23 -26119.832185   6054.067124  -9003.165680      0.071218                    
P 24 -14858.449431  14867.700709  15579.546343   -401.637760                    
V 24   1398.430611 -20921.060307  21179.567768     -0.077569                    
P 25 -11822.469425  15986.450291 -17808.587604    483.007307                    
V 25 -21893.785578   3481.635304  18268.356460      0.014163                    
P 26  20855.263499   5778.330666 -15771.874060    205.881786                    
V 26 -18162.109889   7994.576408 -20909.252473     -0.032867                    
P 27  21319.729560  10264.408856  12219.008089    -87.763651                    
V 27   9363.915187  12846.144422 -26137.670169     -0.042080                    
P 28   8126.913369  17887.130997 -17897.459994    -80.893284                    
V 28  -7453.928928  21478.742377  18100.340357     -0.105394                    
P 29  -1663.625012  18545.810557 -18946.393034   -609.413026                    
V 29 -15946.869953 -17929.533066 -16285.628978      0.003562                    
P 30  -3449.297253 -22536.896217  13524.060015   -452.831018                    
V 30   7925.080633 -15488.808794 -24271.640631      0.044585                    
P 31  12984.210898   9169.383495 -21434.227942   -226.899790                    
V 31  -9087.710653  25241.054816   5749.492536     -0.002718                    
P 32  15398.450311  21247.842413   4967.877003   -599.977594                    
V 32  -5998.186024  -2624.143355  30795.290262     -0.033726                    
EOF
